{"type": "FeatureCollection", "features": [ {"type": "Feature", "properties": {"norad_id": 44622, "name": "GAOFEN-10R", "group": "resource", "lat": 81.96591746298016, "lon": -151.30039974923747, "alt_km": 610.2406055010779, "timestamp": "2025-12-16T10:53:45.120613+00:00", "meta": {"OBJECT_NAME": "GAOFEN-10R", "OBJECT_ID": "2019-066A", "EPOCH": "2025-12-15T23:09:20.701152", "MEAN_MOTION": 14.82803296, "ECCENTRICITY": 0.00076714, "INCLINATION": 98.0281, "RA_OF_ASC_NODE": 297.4836, "ARG_OF_PERICENTER": 32.5892, "MEAN_ANOMALY": 327.5793, "EPHEMERIS_TYPE": 0, "CLASSIFICATION_TYPE": "U", "NORAD_CAT_ID": 44622, "ELEMENT_SET_NO": 999, "REV_AT_EPOCH": 33522, "BSTAR": 0.00020256317, "MEAN_MOTION_DOT": 1.584e-05, "MEAN_MOTION_DDOT": 0}, "tle": {"line1": "1 44622U 19066A   25349.96482293  .00001584  00000+0  20256-3 0  9991", "line2": "2 44622  98.0281 297.4836 0007671  32.5892 327.5793 14.82803296335221"}}, "geometry": {"type": "Point", "coordinates": [-151.30039974923747, 81.96591746298016]}}, {"type": "Feature", "properties": {"norad_id": 44804, "name": "CARTOSAT-3", "group": "resource", "lat": 18.21665908389408, "lon": 47.519771525162525, "alt_km": 502.84864476260645, "timestamp": "2025-12-16T10:53:45.120624+00:00", "meta": {"OBJECT_NAME": "CARTOSAT-3", "OBJECT_ID": "2019-081A", "EPOCH": "2025-12-15T23:44:58.854912", "MEAN_MOTION": 15.19179712, "ECCENTRICITY": 0.00140825, "INCLINATION": 97.4584, "RA_OF_ASC_NODE": 49.5323, "ARG_OF_PERICENTER": 72.7318, "MEAN_ANOMALY": 287.5456, "EPHEMERIS_TYPE": 0, "CLASSIFICATION_TYPE": "U", "NORAD_CAT_ID": 44804, "ELEMENT_SET_NO": 999, "REV_AT_EPOCH": 33565, "BSTAR": 0.00016690855, "MEAN_MOTION_DOT": 3.45e-05, "MEAN_MOTION_DDOT": 0}, "tle": {"line1": "1 44804U 19081A   25349.98957008  .00003450  00000+0  16691-3 0  9995", "line2": "2 44804  97.4584  49.5323 0014082  72.7318 287.5456 15.19179712335650"}}, "geometry": {"type": "Point", "coordinates": [47.519771525162525, 18.21665908389408]}}, {"type": "Feature", "properties": {"norad_id": 44819, "name": "GAOFEN-12 01", "group": "resource", "lat": -31.556034579400286, "lon": 1.4744965794347882, "alt_km": 633.7551580195695, "timestamp": "2025-12-16T10:53:45.120653+00:00", "meta": {"OBJECT_NAME": "GAOFEN-12 01", "OBJECT_ID": "2019-082A", "EPOCH": "2025-12-15T23:41:11.013792", "MEAN_MOTION": 14.80661193, "ECCENTRICITY": 0.00015014, "INCLINATION": 97.8125, "RA_OF_ASC_NODE": 356.1827, "ARG_OF_PERICENTER": 215.1771, "MEAN_ANOMALY": 144.9342, "EPHEMERIS_TYPE": 0, "CLASSIFICATION_TYPE": "U", "NORAD_CAT_ID": 44819, "ELEMENT_SET_NO": 999, "REV_AT_EPOCH": 32698, "BSTAR": 7.1003359e-05, "MEAN_MOTION_DOT": 4.95e-06, "MEAN_MOTION_DDOT": 0}, "tle": {"line1": "1 44819U 19082A   25349.98693303  .00000495  00000+0  71003-4 0  9992", "line2": "2 44819  97.8125 356.1827 0001501 215.1771 144.9342 14.80661193326987"}}, "geometry": {"type": "Point", "coordinates": [1.4744965794347882, -31.556034579400286]}}, {"type": "Feature", "properties": {"norad_id": 44873, "name": "CSG-1", "group": "resource", "lat": 77.81593031315784, "lon": 31.627899584956157, "alt_km": 614.2538017699853, "timestamp": "2025-12-16T10:53:45.120665+00:00", "meta": {"OBJECT_NAME": "CSG-1", "OBJECT_ID": "2019-092A", "EPOCH": "2025-12-15T08:31:32.846592", "MEAN_MOTION": 14.8216804, "ECCENTRICITY": 0.00014203, "INCLINATION": 97.881, "RA_OF_ASC_NODE": 170.6401, "ARG_OF_PERICENTER": 84.0794, "MEAN_ANOMALY": 276.0581, "EPHEMERIS_TYPE": 0, "CLASSIFICATION_TYPE": "U", "NORAD_CAT_ID": 44873, "ELEMENT_SET_NO": 999, "REV_AT_EPOCH": 32424, "BSTAR": 8.958018e-05, "MEAN_MOTION_DOT": 6.61e-06, "MEAN_MOTION_DDOT": 0}, "tle": {"line1": "1 44873U 19092A   25349.35524128  .00000661  00000+0  89580-4 0  9996", "line2": "2 44873  97.8810 170.6401 0001420  84.0794 276.0581 14.82168040324247"}}, "geometry": {"type": "Point", "coordinates": [31.627899584956157, 77.81593031315784]}}, {"type": "Feature", "properties": {"norad_id": 46277, "name": "NEMO-HD", "group": "resource", "lat": -44.68844228074207, "lon": 56.71042510869565, "alt_km": 451.8431913629647, "timestamp": "2025-12-16T10:53:45.120675+00:00", "meta": {"OBJECT_NAME": "NEMO-HD", "OBJECT_ID": "2020-061F", "EPOCH": "2025-12-16T00:10:41.234016", "MEAN_MOTION": 15.40399089, "ECCENTRICITY": 0.00016705, "INCLINATION": 97.2215, "RA_OF_ASC_NODE": 49.0639, "ARG_OF_PERICENTER": 53.7909, "MEAN_ANOMALY": 306.3492, "EPHEMERIS_TYPE": 0, "CLASSIFICATION_TYPE": "U", "NORAD_CAT_ID": 46277, "ELEMENT_SET_NO": 999, "REV_AT_EPOCH": 29374, "BSTAR": 0.00021459566, "MEAN_MOTION_DOT": 8.593e-05, "MEAN_MOTION_DDOT": 0}, "tle": {"line1": "1 46277U 20061F   25350.00742169  .00008593  00000+0  21460-3 0  9999", "line2": "2 46277  97.2215  49.0639 0001670  53.7909 306.3492 15.40399089293742"}}, "geometry": {"type": "Point", "coordinates": [56.71042510869565, -44.68844228074207]}}, {"type": "Feature", "properties": {"norad_id": 46984, "name": "SENTINEL-6A", "group": "resource", "lat": -48.320783980652706, "lon": 124.63057612318812, "alt_km": 1338.8354379709026, "timestamp": "2025-12-16T10:53:45.120686+00:00", "meta": {"OBJECT_NAME": "SENTINEL-6A", "OBJECT_ID": "2020-086A", "EPOCH": "2025-12-15T20:11:26.426112", "MEAN_MOTION": 12.80930731, "ECCENTRICITY": 0.00077166, "INCLINATION": 66.039, "RA_OF_ASC_NODE": 155.8659, "ARG_OF_PERICENTER": 269.2652, "MEAN_ANOMALY": 90.7479, "EPHEMERIS_TYPE": 0, "CLASSIFICATION_TYPE": "U", "NORAD_CAT_ID": 46984, "ELEMENT_SET_NO": 999, "REV_AT_EPOCH": 23684, "BSTAR": 0.00011367898, "MEAN_MOTION_DOT": -3.5e-07, "MEAN_MOTION_DDOT": 0}, "tle": {"line1": "1 46984U 20086A   25349.84127808 -.00000035  00000+0  11368-3 0  9998", "line2": "2 46984  66.0390 155.8659 0007716 269.2652  90.7479 12.80930731236842"}}, "geometry": {"type": "Point", "coordinates": [124.63057612318812, -48.320783980652706]}}, {"type": "Feature", "properties": {"norad_id": 48079, "name": "GAOFEN-12 02", "group": "resource", "lat": -20.158027571655076, "lon": -12.603761696103085, "alt_km": 633.3995391321587, "timestamp": "2025-12-16T10:53:45.120696+00:00", "meta": {"OBJECT_NAME": "GAOFEN-12 02", "OBJECT_ID": "2021-026A", "EPOCH": "2025-12-15T23:38:04.545312", "MEAN_MOTION": 14.80679011, "ECCENTRICITY": 0.00035867, "INCLINATION": 97.9852, "RA_OF_ASC_NODE": 343.9755, "ARG_OF_PERICENTER": 94.5873, "MEAN_ANOMALY": 265.5749, "EPHEMERIS_TYPE": 0, "CLASSIFICATION_TYPE": "U", "NORAD_CAT_ID": 48079, "ELEMENT_SET_NO": 999, "REV_AT_EPOCH": 25465, "BSTAR": 7.1752374e-05, "MEAN_MOTION_DOT": 4.99e-06, "MEAN_MOTION_DDOT": 0}, "tle": {"line1": "1 48079U 21026A   25349.98477483  .00000499  00000+0  71752-4 0  9999", "line2": "2 48079  97.9852 343.9755 0003586  94.5873 265.5749 14.80679011254651"}}, "geometry": {"type": "Point", "coordinates": [-12.603761696103085, -20.158027571655076]}}, {"type": "Feature", "properties": {"norad_id": 48268, "name": "PLEIADES NEO 3", "group": "resource", "lat": 59.05804875191167, "lon": 49.45813167553776, "alt_km": 617.5229876400772, "timestamp": "2025-12-16T10:53:45.120706+00:00", "meta": {"OBJECT_NAME": "PLEIADES NEO 3", "OBJECT_ID": "2021-034A", "EPOCH": "2025-12-15T05:27:07.814592", "MEAN_MOTION": 14.81673903, "ECCENTRICITY": 0.00013201, "INCLINATION": 97.8945, "RA_OF_ASC_NODE": 61.6322, "ARG_OF_PERICENTER": 93.5672, "MEAN_ANOMALY": 266.5692, "EPHEMERIS_TYPE": 0, "CLASSIFICATION_TYPE": "U", "NORAD_CAT_ID": 48268, "ELEMENT_SET_NO": 999, "REV_AT_EPOCH": 25041, "BSTAR": 0.00025143135, "MEAN_MOTION_DOT": 1.927e-05, "MEAN_MOTION_DDOT": 0}, "tle": {"line1": "1 48268U 21034A   25349.22717378  .00001927  00000+0  25143-3 0  9994", "line2": "2 48268  97.8945  61.6322 0001320  93.5672 266.5692 14.81673903250410"}}, "geometry": {"type": "Point", "coordinates": [49.45813167553776, 59.05804875191167]}}, {"type": "Feature", "properties": {"norad_id": 49070, "name": "PLEIADES NEO 4", "group": "resource", "lat": -59.21247212881076, "lon": -130.629990567504, "alt_km": 632.0108041406211, "timestamp": "2025-12-16T10:53:45.120716+00:00", "meta": {"OBJECT_NAME": "PLEIADES NEO 4", "OBJECT_ID": "2021-073E", "EPOCH": "2025-12-16T00:05:27.373920", "MEAN_MOTION": 14.8167071, "ECCENTRICITY": 0.00013253, "INCLINATION": 97.8947, "RA_OF_ASC_NODE": 62.3935, "ARG_OF_PERICENTER": 89.712, "MEAN_ANOMALY": 270.4244, "EPHEMERIS_TYPE": 0, "CLASSIFICATION_TYPE": "U", "NORAD_CAT_ID": 49070, "ELEMENT_SET_NO": 999, "REV_AT_EPOCH": 23424, "BSTAR": -3.109413e-05, "MEAN_MOTION_DOT": -2.97e-06, "MEAN_MOTION_DDOT": 0}, "tle": {"line1": "1 49070U 21073E   25350.00378905 -.00000297  00000+0 -31094-4 0  9990", "line2": "2 49070  97.8947  62.3935 0001325  89.7120 270.4244 14.81670710234245"}}, "geometry": {"type": "Point", "coordinates": [-130.629990567504, -59.21247212881076]}}, {"type": "Feature", "properties": {"norad_id": 49260, "name": "LANDSAT 9", "group": "resource", "lat": -69.6280928529957, "lon": 81.38841197462513, "alt_km": 710.5724718877982, "timestamp": "2025-12-16T10:53:45.120726+00:00", "meta": {"OBJECT_NAME": "LANDSAT 9", "OBJECT_ID": "2021-088A", "EPOCH": "2025-12-15T22:02:16.785312", "MEAN_MOTION": 14.57101186, "ECCENTRICITY": 0.00011407, "INCLINATION": 98.2092, "RA_OF_ASC_NODE": 57.9832, "ARG_OF_PERICENTER": 89.8233, "MEAN_ANOMALY": 270.3096, "EPHEMERIS_TYPE": 0, "CLASSIFICATION_TYPE": "U", "NORAD_CAT_ID": 49260, "ELEMENT_SET_NO": 999, "REV_AT_EPOCH": 22431, "BSTAR": 0.00010153374, "MEAN_MOTION_DOT": 4.12e-06, "MEAN_MOTION_DDOT": 0}, "tle": {"line1": "1 49260U 21088A   25349.91824983  .00000412  00000+0  10153-3 0  9996", "line2": "2 49260  98.2092  57.9832 0001140  89.8233 270.3096 14.57101186224319"}}, "geometry": {"type": "Point", "coordinates": [81.38841197462513, -69.6280928529957]}}]}